QIANFAN-57              
1 62787U 25016C   25225.95143855  .00000121  00000+0  16828-3 0  9991
2 62787  88.9838 115.6595 0002508  88.5892 271.5546 13.50959158 30899
QIANFAN-58              
1 62788U 25016D   25225.92266484  .00000103  00000+0  14125-3 0  9991
2 62788  88.9807 115.5317 0013727 341.2683  18.7961 13.50958255 30933
QIANFAN-59              
1 62789U 25016E   25225.86095806  .00000104  00000+0  14219-3 0  9998
2 62789  88.9831 115.5799 0014746 344.1287  15.9400 13.50962542 30929
QIANFAN-60              
1 62790U 25016F   25225.92661325  .00000102  00000+0  13963-3 0  9995
2 62790  88.9812 115.5756 0015125 341.4581  18.6017 13.50959713 30911
QIANFAN-61              
1 62791U 25016G   25225.93914987  .00000104  00000+0  14197-3 0  9994
2 62791  88.9880 115.6500 0014518 340.3888  19.6703 13.50965490 30932
QIANFAN-62              
1 62792U 25016H   25225.94311282  .00000112  00000+0  15516-3 0  9990
2 62792  88.9826 115.5834 0015918 340.0026  20.0499 13.50959405 30924
QIANFAN-63              
1 62793U 25016J   25225.95549463  .00000115  00000+0  15947-3 0  9997
2 62793  88.9832 115.5226 0015879 344.6446  15.4221 13.50956535 30965
QIANFAN-64              
1 62794U 25016K   25225.87314351  .00000123  00000+0  17213-3 0  9992
2 62794  88.9819 115.5274 0013521 339.6957  20.3655 13.50958998 30946
